{
  "norad_id": 57853,
  "name": "STARLINK-30404",
  "history": [
    {
      "epoch": "2026-04-14T17:53:44.069280Z",
      "apogee_km": 476.1456682670914,
      "perigee_km": 474.3583044194538,
      "latitude_deg": 1.5635226443895676e-05,
      "longitude_deg": 4.916731973735721,
      "height_km": 476.0919869136566,
      "semi_major_axis_km": 6853.388986343272,
      "eccentricity": 0.0001304,
      "inclination_deg": 53.1595,
      "raan_deg": 116.268,
      "arg_perigee_deg": 86.2807,
      "mean_anomaly_deg": 273.8343,
      "mean_motion_rev_day": 15.30187636
    },
    {
      "epoch": "2026-04-15T06:26:09.369600Z",
      "apogee_km": 476.13950759943964,
      "perigee_km": 474.33844039347423,
      "latitude_deg": -7.229517477857605e-05,
      "longitude_deg": 173.86913504702108,
      "height_km": 476.07393253364955,
      "semi_major_axis_km": 6853.375973996457,
      "eccentricity": 0.0001314,
      "inclination_deg": 53.1595,
      "raan_deg": 113.8409,
      "arg_perigee_deg": 85.9874,
      "mean_anomaly_deg": 274.1276,
      "mean_motion_rev_day": 15.30191994
    },
    {
      "epoch": "2026-04-16T16:55:19.776000Z",
      "apogee_km": 476.03586782699404,
      "perigee_km": 474.4431431271223,
      "latitude_deg": -7.996861858075444e-06,
      "longitude_deg": 8.486026857437766,
      "height_km": 476.0537189506766,
      "semi_major_axis_km": 6853.376505477058,
      "eccentricity": 0.0001162,
      "inclination_deg": 53.1593,
      "raan_deg": 107.1674,
      "arg_perigee_deg": 83.9494,
      "mean_anomaly_deg": 276.1639,
      "mean_motion_rev_day": 15.30191816
    },
    {
      "epoch": "2026-04-17T22:42:20.599200Z",
      "apogee_km": 476.0334264335597,
      "perigee_km": 474.44741783052996,
      "latitude_deg": -4.243826646785159e-05,
      "longitude_deg": -85.25459457931258,
      "height_km": 476.0544267180102,
      "semi_major_axis_km": 6853.377422132045,
      "eccentricity": 0.00011571,
      "inclination_deg": 53.159,
      "raan_deg": 101.4034,
      "arg_perigee_deg": 83.91,
      "mean_anomaly_deg": 276.2032,
      "mean_motion_rev_day": 15.30191509
    },
    {
      "epoch": "2026-04-18T15:56:55.338432Z",
      "apogee_km": 476.05020926730504,
      "perigee_km": 474.39854917491357,
      "latitude_deg": 1.2019217846822707e-05,
      "longitude_deg": 12.05545509804605,
      "height_km": 476.02729063141766,
      "semi_major_axis_km": 6853.361379221109,
      "eccentricity": 0.0001205,
      "inclination_deg": 53.1596,
      "raan_deg": 98.0663,
      "arg_perigee_deg": 83.379,
      "mean_anomaly_deg": 276.7348,
      "mean_motion_rev_day": 15.30196882
    },
    {
      "epoch": "2026-04-19T15:27:43.714944Z",
      "apogee_km": 476.04416802139076,
      "perigee_km": 474.4363657145823,
      "latitude_deg": 3.0282979839890603e-05,
      "longitude_deg": 13.836736510160105,
      "height_km": 475.9851373699218,
      "semi_major_axis_km": 6853.377266867986,
      "eccentricity": 0.0001173,
      "inclination_deg": 53.16,
      "raan_deg": 93.5148,
      "arg_perigee_deg": 79.0022,
      "mean_anomaly_deg": 281.1111,
      "mean_motion_rev_day": 15.30191561
    },
    {
      "epoch": "2026-04-19T23:17:59.652384Z",
      "apogee_km": 476.0300477000692,
      "perigee_km": 474.4455474468705,
      "latitude_deg": -1.2278060491189103e-05,
      "longitude_deg": -105.56788699218235,
      "height_km": 476.0384958200324,
      "semi_major_axis_km": 6853.37479757347,
      "eccentricity": 0.0001156,
      "inclination_deg": 53.1601,
      "raan_deg": 91.9985,
      "arg_perigee_deg": 82.9268,
      "mean_anomaly_deg": 277.1864,
      "mean_motion_rev_day": 15.30192388
    },
    {
      "epoch": "2026-04-21T09:47:11.126688Z",
      "apogee_km": 476.5201828870977,
      "perigee_km": 474.3643209976053,
      "latitude_deg": -2.8306383668952843e-06,
      "longitude_deg": 89.0431960545098,
      "height_km": 476.09235371861075,
      "semi_major_axis_km": 6853.579251942351,
      "eccentricity": 0.00015728,
      "inclination_deg": 53.1603,
      "raan_deg": 85.3237,
      "arg_perigee_deg": 76.7196,
      "mean_anomaly_deg": 283.398,
      "mean_motion_rev_day": 15.30123916
    },
    {
      "epoch": "2026-04-22T15:34:10.566624Z",
      "apogee_km": 475.96856446627226,
      "perigee_km": 474.5019428039941,
      "latitude_deg": -5.6196742895708975e-05,
      "longitude_deg": -4.69146487805189,
      "height_km": 476.0593669949421,
      "semi_major_axis_km": 6853.372253635132,
      "eccentricity": 0.000107,
      "inclination_deg": 53.1615,
      "raan_deg": 79.5599,
      "arg_perigee_deg": 84.1762,
      "mean_anomaly_deg": 275.936,
      "mean_motion_rev_day": 15.3019324
    },
    {
      "epoch": "2026-04-23T07:14:44.628288Z",
      "apogee_km": 476.29375641266324,
      "perigee_km": 474.30598558259953,
      "latitude_deg": -2.735943184487802e-06,
      "longitude_deg": 116.48875424984422,
      "height_km": 476.05085374682056,
      "semi_major_axis_km": 6853.436870997632,
      "eccentricity": 0.00014502,
      "inclination_deg": 53.1608,
      "raan_deg": 76.5258,
      "arg_perigee_deg": 81.4978,
      "mean_anomaly_deg": 278.6187,
      "mean_motion_rev_day": 15.30171599
    },
    {
      "epoch": "2026-04-24T20:51:59.881248Z",
      "apogee_km": 475.9606987028037,
      "perigee_km": 474.516007178403,
      "latitude_deg": 1.3979330485601784e-05,
      "longitude_deg": -96.65322493206371,
      "height_km": 476.2152604300953,
      "semi_major_axis_km": 6853.375352940603,
      "eccentricity": 0.0001054,
      "inclination_deg": 53.1617,
      "raan_deg": 69.2424,
      "arg_perigee_deg": 96.2273,
      "mean_anomaly_deg": 263.8848,
      "mean_motion_rev_day": 15.30192202
    },
    {
      "epoch": "2026-04-25T14:06:34.655040Z",
      "apogee_km": 476.4152494263244,
      "perigee_km": 474.0713933564093,
      "latitude_deg": 6.204435114895336e-05,
      "longitude_deg": 0.6569753798589714,
      "height_km": 476.064733585403,
      "semi_major_axis_km": 6853.380321391367,
      "eccentricity": 0.000171,
      "inclination_deg": 53.1596,
      "raan_deg": 65.9056,
      "arg_perigee_deg": 86.2819,
      "mean_anomaly_deg": 273.8378,
      "mean_motion_rev_day": 15.30190538
    },
    {
      "epoch": "2026-04-26T19:53:35.441952Z",
      "apogee_km": 476.1808594058257,
      "perigee_km": 474.2362911322998,
      "latitude_deg": -5.387423365748806e-05,
      "longitude_deg": -93.08425636171069,
      "height_km": 476.3828897793943,
      "semi_major_axis_km": 6853.3455752690625,
      "eccentricity": 0.00014187,
      "inclination_deg": 53.1605,
      "raan_deg": 60.1409,
      "arg_perigee_deg": 106.51,
      "mean_anomaly_deg": 253.6056,
      "mean_motion_rev_day": 15.30202175
    },
    {
      "epoch": "2026-04-27T19:24:23.611104Z",
      "apogee_km": 476.2135975208939,
      "perigee_km": 474.29875946682296,
      "latitude_deg": 1.75631239773556e-05,
      "longitude_deg": -91.29916739586936,
      "height_km": 476.1729849837274,
      "semi_major_axis_km": 6853.393178493858,
      "eccentricity": 0.0001397,
      "inclination_deg": 53.1607,
      "raan_deg": 55.5923,
      "arg_perigee_deg": 91.1275,
      "mean_anomaly_deg": 268.9886,
      "mean_motion_rev_day": 15.30186232
    },
    {
      "epoch": "2026-04-28T18:55:11.335296Z",
      "apogee_km": 476.3528826202273,
      "perigee_km": 474.07619923833045,
      "latitude_deg": -2.645323921974665e-06,
      "longitude_deg": -89.5138876759958,
      "height_km": 476.0868914932012,
      "semi_major_axis_km": 6853.351540929279,
      "eccentricity": 0.0001661,
      "inclination_deg": 53.1623,
      "raan_deg": 51.0421,
      "arg_perigee_deg": 88.7201,
      "mean_anomaly_deg": 271.399,
      "mean_motion_rev_day": 15.30200177
    },
    {
      "epoch": "2026-04-29T12:09:46.649088Z",
      "apogee_km": 476.2999112450152,
      "perigee_km": 474.19866300938247,
      "latitude_deg": 5.8487644317388306e-05,
      "longitude_deg": 7.793466637367906,
      "height_km": 476.1066506167801,
      "semi_major_axis_km": 6853.386287127199,
      "eccentricity": 0.0001533,
      "inclination_deg": 53.1624,
      "raan_deg": 47.7047,
      "arg_perigee_deg": 87.7857,
      "mean_anomaly_deg": 272.332,
      "mean_motion_rev_day": 15.3018854
    },
    {
      "epoch": "2026-04-30T11:40:34.284288Z",
      "apogee_km": 476.2025101551999,
      "perigee_km": 474.25834688307896,
      "latitude_deg": -1.2131784611686014e-05,
      "longitude_deg": 9.578779800233635,
      "height_km": 476.170017112674,
      "semi_major_axis_km": 6853.367428519139,
      "eccentricity": 0.00014184,
      "inclination_deg": 53.1625,
      "raan_deg": 43.1542,
      "arg_perigee_deg": 92.4438,
      "mean_anomaly_deg": 267.6725,
      "mean_motion_rev_day": 15.30194856
    },
    {
      "epoch": "2026-05-02T04:25:58.092096Z",
      "apogee_km": 476.0386761974514,
      "perigee_km": 474.48295489332213,
      "latitude_deg": -3.052933706159202e-05,
      "longitude_deg": 108.66935026689458,
      "height_km": 476.09838712333885,
      "semi_major_axis_km": 6853.397815545386,
      "eccentricity": 0.0001135,
      "inclination_deg": 53.1614,
      "raan_deg": 35.2678,
      "arg_perigee_deg": 85.5139,
      "mean_anomaly_deg": 274.5991,
      "mean_motion_rev_day": 15.30184679
    },
    {
      "epoch": "2026-05-03T18:03:13.574016Z",
      "apogee_km": 475.9155474254676,
      "perigee_km": 474.53390970098917,
      "latitude_deg": -4.460276152775149e-05,
      "longitude_deg": -104.47271052008739,
      "height_km": 475.89260220238657,
      "semi_major_axis_km": 6853.361728563228,
      "eccentricity": 0.0001008,
      "inclination_deg": 53.1621,
      "raan_deg": 27.9853,
      "arg_perigee_deg": 70.4764,
      "mean_anomaly_deg": 289.6345,
      "mean_motion_rev_day": 15.30196765
    }
  ]
}